{
  "norad_id": 68888,
  "name": "KUIPER-00511",
  "history": [
    {
      "epoch": "2026-05-02T10:00:03.000096Z",
      "apogee_km": 460.24431010682474,
      "perigee_km": 450.5120178103143,
      "latitude_deg": 29.558497530334343,
      "longitude_deg": -112.8999603797248,
      "height_km": 452.32856619341953,
      "semi_major_axis_km": 6833.515163958569,
      "eccentricity": 0.0007121,
      "inclination_deg": 51.8768,
      "raan_deg": 103.7163,
      "arg_perigee_deg": 120.1417,
      "mean_anomaly_deg": 21.1271,
      "mean_motion_rev_day": 15.36867824
    }
  ]
}