{"fetched_at":"2026-05-03T06:27:58Z","count":17151,"tles":[{"name":"KUIPER-00511","line1":"1 68888U 26095AA  26122.41670139  .00069026  00000+0  18780-2 0  9992","line2":"2 68888  51.8768 103.7163 0007121 120.1417  21.1271 15.36867824  1301","category":"Other"}]}